STARLINK-3058
1 29138C 21082J   21325.19096869 -.00667457  00000-0 -10764-1 0  3258
2 29138  70.0000 295.9753 0003427 268.0194 162.7335 15.53414812    12
